#cP2023  1 27  0  0  0.00000000      96 ORBIT IGS20 HLM  IGS
## 2246 432000.00000000   900.00000000 59971 0.0000000000000
+   31   G01G02G03G04G05G06G07G08G09G10G11G12G13G14G15G16G17
+        G18G19G20G21G22G23G24G25G26G27G29G30G31G32  0  0  0
+          0  0  0  0  0  0  0  0  0  0  0  0  0  0  0  0  0
+          0  0  0  0  0  0  0  0  0  0  0  0  0  0  0  0  0
+          0  0  0  0  0  0  0  0  0  0  0  0  0  0  0  0  0
++         2  2  2  3  2  2  2  2  2  2  2  2  2  2  2  2  3
++         2  2  2  2  3  2  2  2  2  2  2  2  2  4  0  0  0
++         0  0  0  0  0  0  0  0  0  0  0  0  0  0  0  0  0
++         0  0  0  0  0  0  0  0  0  0  0  0  0  0  0  0  0
++         0  0  0  0  0  0  0  0  0  0  0  0  0  0  0  0  0
%c G  cc GPS ccc cccc cccc cccc cccc ccccc ccccc ccccc ccccc
%c cc cc ccc ccc cccc cccc cccc cccc ccccc ccccc ccccc ccccc
%f  1.2500000  1.025000000  0.00000000000  0.000000000000000
%f  0.0000000  0.000000000  0.00000000000  0.000000000000000
%i    0    0    0    0      0      0      0      0         0
%i    0    0    0    0      0      0      0      0         0
/* RAPID ORBIT COMBINATION FROM WEIGHTED AVERAGE OF:        
/* cod emr esa gfz grg jpl ngs usn whu                      
/* REFERENCED TO IGS TIME (IGST) AND TO WEIGHTED MEAN POLE: 
/* PCV:IGS20_2233 OL/AL:FES2014b NONE     Y  ORB:CMB CLK:CMB
*  2023  1 27 18  0  0.00000000
PG01   -711.791063 -15011.228637 -22180.072965    219.367743  7  6  6 114       
PG02   4612.673269  14709.370223  22268.667669   -624.698207  5  7  5 108       
PG03  -9252.868597 -20949.134049 -13670.882816   -369.131989  6  9  7 112       
PG04   -773.644894 -24602.927879   9839.420893    -40.030164  8 11  5 121       
PG05  -5006.860699  14959.002876  21180.434503   -113.618569  6  8  4 106       
PG06 -25774.501037   5244.709244  -3954.613112    564.793044  5  9  7 103       
PG07 -15995.916395  -9595.750607  19512.726478    251.624989  5  8  7 103       
PG08   6279.892030 -25513.486147   1894.147100   -105.641040  6  7  6 121       
PG09  -9410.909947 -17226.053844  17794.386485   -228.993726  6  7  7 116       
PG10  21958.143046   8842.186151 -12186.419156    -22.202822  5  5  5  87       
PG11 -21810.769629  12161.731324   9008.411101    -88.959290  2  9  5  86       
PG12   6301.380375  21408.126284 -14758.325055   -333.194404  5  6  4 112       
PG13 -13256.572722  21679.279382   7203.670773    466.447588  6  6  5  94       
PG14 -21897.546612 -11147.084449 -10238.178800    -40.504411  5  6  4  85       
PG15  -2893.248212  26206.122932   1074.270709      8.292743  5  6  5 109       
PG16   9359.230425 -11814.820276  21543.908924   -522.446841  7  7  3  82       
PG17 -14218.286736  -3661.101823 -21699.768128    696.236380  7  8  9 120       
PG18  18519.092143   7096.460708  17740.931832   -116.247534  4  6  6 123       
PG19 -16492.950641   7710.591030 -19468.604155    269.782162  5  9  4 117       
PG20 -15198.160647   7638.227423  20379.601731    454.402281  7  9  3 107       
PG21   7930.525014 -16872.996316 -17994.312251    153.699626  6  6  7  98       
PG22  16042.956467 -11914.113409 -16976.448806    414.825526  4  9  6 107       
PG23  20897.043170  16428.360150  -1747.764540      3.860616  6  6  6  89       
PG24  -2857.759751  17332.205391 -20160.233995    -48.443907  2  3  6 116       
PG25  15096.060168  20769.427008  -7650.906496    415.015689  9  8  7  57       
PG26  19172.622729  -1948.099205  18305.060224    240.878541  6  6  4  99       
PG27  12591.888439 -19777.229666  11837.557874    116.647360  5  7  5 104       
PG29   5595.866809  19972.938255  16497.727632   -582.835877  4  7  8 103       
PG30 -24404.435406   -909.835218  10845.271506   -532.120396  4  6  7 111       
PG31  26059.233545  -5930.125911  -2303.263527   -207.551182  5  7  7  86       
PG32  15365.605642    104.947443 -21485.887094   -377.671457  8  8 11 127       
*  2023  1 27 18 15  0.00000000
PG01   1610.088667 -15743.861679 -21578.793690    219.363711  7  6  6 109       
PG02   2423.592097  15674.646088  21964.546676   -624.695845  5  7  5 104       
PG03  -7896.673223 -19979.779901 -15813.271355   -369.128983  5  9  7 112       
PG04   -330.064851 -25505.495638   7202.989299    -40.023065  8 11  4 123       
PG05  -6993.462236  13464.383618  21622.912723   -113.619857  6  8  4 107       
PG06 -25243.656029   4886.684374  -6772.652656    564.797818  4  9  7  85       
PG07 -13944.718018 -10402.640581  20621.907828    251.618628  5  7  7  97       
PG08   6498.407145 -25084.004108   4738.693843   -105.642520  6  7  6 119       
PG09  -8926.010255 -19123.701223  16021.378662   -228.987606  7  7  7 117       
PG10  22814.167706   9786.116552  -9698.648836    -22.204560  6  6  5  83       
PG11 -22716.929913  12189.359288   6326.637263    -88.967780  1  8  5  77       
PG12   4944.713261  20288.023885 -16751.260222   -333.198768  5  4  3  98       
PG13 -13158.121236  20655.900481   9857.906596    466.453024  6  6  6  89       
PG14 -22482.544940 -12023.719170  -7666.529590    -40.497083  5  5  4 102       
PG15  -3236.508174  25855.073071   3868.460602      8.295433  4  8  7 109       
PG16  11150.582024 -10021.741615  21639.980750   -522.445803  7  7  3  86       
PG17 -13579.684376  -6145.577985 -21541.546209    696.238554  8  8 10 115       
PG18  16552.577513   7868.795409  19279.442661   -116.261473  4  7  6 129       
PG19 -15940.808552   5521.831778 -20673.306414    269.786779  5  9  4 109       
PG20 -17081.328001   6359.429521  19277.495089    454.400562  7 10  3 104       
PG21   9924.888621 -17545.860630 -16264.175261    153.699842  6  6  7  97       
PG22  15640.054354  -9827.265935 -18587.793116    414.832676  3 10  6 113       
PG23  20791.882405  16616.012599   1121.739906      3.861799  6  7  6  78       
PG24  -4917.103058  18102.659479 -18995.880405    -48.458760  3  4  5 112       
PG25  14201.921894  20314.402163 -10227.516542    415.018676 10  8  7  31       
PG26  20685.717168   -598.694190  16722.165175    240.878981  6  7  5 100       
PG27  12530.064813 -18228.666237  14157.551977    116.638974  5  6  4 108       
PG29   4994.268714  21652.201367  14443.941095   -582.837871  4  7  8  97       
PG30 -23201.866914  -1586.896094  13154.841980   -532.119472  4  6  7 111       
PG31  25753.375367  -5583.496581  -5078.505279   -207.552149  6  7  7  90       
PG32  14951.889941   2574.233551 -21640.174079   -377.682356  9  6 10 119       
*  2023  1 27 18 30  0.00000000
PG01   3808.887849 -16576.124816 -20614.461008    219.359672  6  6  6 116       
PG02    338.641601  16733.801704  21304.277334   -624.693616  5  8  5 105       
PG03  -6308.762704 -18950.077683 -17687.050302   -369.126002  5  9  7 108       
PG04     17.614737 -26127.536199   4441.815084    -40.015989  8 12  3 124       
PG05  -9078.250732  12059.474542  21687.182619   -113.621159  6  8  3 103       
PG06 -24444.769599   4378.361541  -9474.499120    564.802583  3  9  7  98       
PG07 -11840.023996 -11356.416788  21392.509502    251.612973  5  7  7 104       
PG08   6706.733832 -24347.409197   7499.640513   -105.644362  6  7  4 116       
PG09  -8561.313684 -20827.589435  13970.675214   -228.981474  7  7  7 116       
PG10  23488.509007  10504.680911  -7045.644012    -22.205526  6  6  4  81       
PG11 -23328.898354  12158.805841   3535.794304    -88.976256     8  5  92       
PG12   3374.801878  19106.140839 -18462.655950   -333.202463  4  3  2 116       
PG13 -13038.842688  19344.656420  12339.380259    466.458648  6  6  6  83       
PG14 -22880.456572 -12681.757970  -4963.864179    -40.489711  5  5  4 111       
PG15  -3602.282854  25205.194043   6594.368155      8.298252  4  9  7  96       
PG16  13021.375589  -8335.149602  21353.707051   -522.444689  7  7  4  80       
PG17 -13081.654855  -8620.851388 -20997.029583    696.240876  8  9 10 112       
PG18  14485.702997   8805.113970  20487.708268   -116.275446  4  7  6 128       
PG19 -15483.059256   3196.600626 -21527.167317    269.791244  5 10  4 113       
PG20 -18900.204581   5241.375257  17842.539404    454.398350  7 10  3 111       
PG21  11689.370684 -18215.342822 -14232.319095    153.699947  6  6  7 108       
PG22  15310.171370  -7558.271229 -19866.122789    414.839664  2 10  5 119       
PG23  20433.756994  16621.792309   3972.109060      3.862918  6  8  6  93       
PG24  -6810.851991  18903.666477 -17509.649606    -48.473528  3  4  5 117       
PG25  13063.353936  19740.130216 -12633.049416    415.021643  9  9  7  70       
PG26  22098.491905    566.120439  14852.972746    240.879406  6  7  5  90       
PG27  12518.909770 -16428.861314  16225.548048    116.630604  5  4  4  98       
PG29   4534.302695  23118.873265  12139.962968   -582.839900  5  7  8  96       
PG30 -21805.297847  -2414.743285  15242.011810   -532.118580  5  6  7 111       
PG31  25181.964464  -5109.944153  -7769.011191   -207.553156  6  7  6  80       
PG32  14666.431588   5055.551376 -21416.543519   -377.693270  9  7  8 126       
EOF
